[{"OBJECT_NAME":"STARLINK-2141","OBJECT_ID":"2021-017K","EPOCH":"2026-03-10T00:00:02.999808","MEAN_MOTION":15.45107749,"ECCENTRICITY":0.00010512,"INCLINATION":53.1593,"RA_OF_ASC_NODE":202.4009,"ARG_OF_PERICENTER":80.066,"MEAN_ANOMALY":252.5312,"EPHEMERIS_TYPE":0,"CLASSIFICATION_TYPE":"U","NORAD_CAT_ID":47731,"ELEMENT_SET_NO":999,"REV_AT_EPOCH":586,"BSTAR":0.022459808,"MEAN_MOTION_DOT":0.01187441,"MEAN_MOTION_DDOT":0},{"OBJECT_NAME":"GLOBAL-14","OBJECT_ID":"2021-106A","EPOCH":"2026-03-09T06:56:00.085632","MEAN_MOTION":15.45685996,"ECCENTRICITY":0.001241,"INCLINATION":42.0038,"RA_OF_ASC_NODE":162.6346,"ARG_OF_PERICENTER":44.7843,"MEAN_ANOMALY":315.3999,"EPHEMERIS_TYPE":0,"CLASSIFICATION_TYPE":"U","NORAD_CAT_ID":49469,"ELEMENT_SET_NO":999,"REV_AT_EPOCH":24264,"BSTAR":0.00056243154,"MEAN_MOTION_DOT":0.00027701,"MEAN_MOTION_DDOT":0}]
